[Satellite]
VERSION=1.1
NAME=SL-8 R/B
NICKNAME=SL-8 R/B
TLE1=1 12139U 81003B   17186.03040289  .00001817  00000-0  85450-4 0  9990
TLE2=2 12139  82.9480 155.4607 0477121  82.9376 282.5815 14.53833970849560
